STARLINK-6085
1 57115U 23090Q   26090.51296569  .00015475  00000+0  84372-3 0  9991
2 57115  42.9968 142.7218 0020073 339.5857  20.4186 15.14010774153859
STARLINK-6348
1 57360U 23099AJ  26090.83335647  .00053383  00000+0  28952-2 0  9999
2 57360  42.9989 115.3343 0001469 252.6855   9.6944 15.13805046  5681
